0 DELTA 1 DEB
1 12209U 78026BA  13283.00315245  .00000766  00000-0  30096-3 0  3257
2 12209 098.4159 276.1399 0063202 060.9820 009.6500 14.30882469684325
0 DELTA 1 DEB
1 12209U 78026BA  13285.46664286  .00000700  00000-0  27663-3 0  3266
2 12209 098.4158 278.5257 0063081 053.8187 099.4099 14.30886522684677
0 DELTA 1 DEB
1 12209U 78026BA  13287.48745637  .00000859  00000-0  33571-3 0  3271
2 12209 098.4159 280.4827 0063021 047.9455 068.9109 14.30890040684964
0 DELTA 1 DEB
1 12209U 78026BA  13289.71297652  .00001012  00000-0  39292-3 0  3287
2 12209 098.4161 282.6375 0062840 041.3983 013.0035 14.30896535685281
0 DELTA 1 DEB
1 12209U 78026BA  13291.95020689  .00001060  00000-0  41068-3 0  3298
2 12209 098.4164 284.8041 0062736 034.8361 017.4421 14.30900278685602
0 DELTA 1 DEB
1 12209U 78026BA  13293.97886940  .00001089  00000-0  42171-3 0  3301
2 12209 098.4167 286.7687 0062602 028.8950 027.5240 14.30904991685899
0 DELTA 1 DEB
1 12209U 78026BA  13296.21768698  .00001173  00000-0  45305-3 0  3317
2 12209 098.4167 288.9371 0062451 022.3084 040.2294 14.30910878686211
